STARLINK-31268          
1 59245U 24049Q   25051.91668981  .00026442  00000+0  96774-3 0  9998
2 59245  42.9996 135.6892 0001563 269.1853  65.8985 15.27553184  5905
STARLINK-31284          
1 59246U 24049R   25051.54308767  .00000802  00000+0  26465-4 0  9994
2 59246  42.9994 142.3927 0000326 144.6416 215.4462 15.40689244 53937
STARLINK-31424          
1 59247U 24049S   25051.55655011 -.00005473  00000+0 -12392-3 0  9997
2 59247  43.0013 142.4921 0002562 292.8387  67.2199 15.40673621 53936
STARLINK-31405          
1 59248U 24049T   25051.52563696 -.00079913  00000+0 -19545-2 0  9998
2 59248  43.0012 142.2584 0003120 285.8597  74.1915 15.40249437 53943
STARLINK-31426          
1 59249U 24049U   25051.91668981 -.01100620  00000+0 -33636-1 0  9992
2 59249  43.0006 139.9176 0001503 268.4361 137.2885 15.35934379  5906
STARLINK-31407          
1 59250U 24049V   25051.30395104 -.00002443  00000+0 -51254-4 0  9993
2 59250  43.0004 144.0389 0001746 237.5671 122.5016 15.40691696 53891
STARLINK-31418          
1 59251U 24049W   25051.91668981  .00293727  00000+0  12479-2 0  9996
2 59251  42.9897 118.3611 0020471  47.5650 163.6357 15.83399589  6002
STARLINK-31393          
1 59252U 24049X   25051.54154447 -.00000415  00000+0 -23293-5 0  9994
2 59252  43.0003 140.6432 0002538 268.6523  91.4043 15.42702974 54017
STARLINK-31425          
1 59253U 24049Y   25051.54534485 -.00001062  00000+0 -18181-4 0  9997
2 59253  42.9993 142.4099 0000672 234.8166 125.2628 15.40686005 53937
STARLINK-31659          
1 59254U 24050A   25051.56172258 -.00001642  00000+0 -43357-4 0  9995
2 59254  53.1606 153.7695 0001386  79.0448 281.0709 15.30178486 53237
STARLINK-31629          
1 59255U 24050B   25051.56962950  .00001683  00000+0  68927-4 0  9995
2 59255  53.1594 155.9477 0001066  55.3929 304.7172 15.30199058 53204
STARLINK-31652          
1 59256U 24050C   25051.55696451  .00003533  00000+0  13139-3 0  9995
2 59256  53.1582 155.8720 0001324 104.7762 255.3386 15.30194863 53200
STARLINK-31655          
1 59257U 24050D   25051.48485559  .00002205  00000+0  53879-4 0  9994
2 59257  53.1572 121.5751 0001267  95.7687 264.3465 15.45580452 53673
STARLINK-31637          
1 59258U 24050E   25051.55063329  .00000053  00000+0  13912-4 0  9993
2 59258  53.1599 155.8353 0001295 108.8924 251.2217 15.30184554 53208
STARLINK-31506          
1 59259U 24050F   25051.56646358  .00006441  00000+0  22947-3 0  9998
2 59259  53.1571 155.9292 0001346  85.5551 274.5603 15.30191020 53209
STARLINK-31288          
1 59260U 24050G   25051.52436780 -.00000420  00000+0 -20451-5 0  9995
2 59260  53.1600 156.3721 0001296  70.6594 289.4547 15.30178878 53198
STARLINK-31639          
1 59261U 24050H   25051.55380147  .00000553  00000+0  30819-4 0  9997
2 59261  53.1597 155.8537 0001436  96.7828 263.3336 15.30182502 53206
STARLINK-31673          
1 59262U 24050J   25051.55736322  .00056732  00000+0  18416-2 0  9995
2 59262  53.1586 155.8748 0002296  43.2249 316.8932 15.31426731 53200
STARLINK-31598          
1 59263U 24050K   25051.53703021 -.00001041  00000+0 -23050-4 0  9991
2 59263  53.1596 156.4358 0001235 108.1075 252.0060 15.30179328 53182
STARLINK-31645          
1 59264U 24050L   25051.57701116  .00000394  00000+0  25434-4 0  9995
2 59264  53.1612 155.9963 0001593  87.2146 272.9037 15.30201208 53202
STARLINK-31646          
1 59265U 24050M   25051.58334110  .00005518  00000+0  19824-3 0  9991
2 59265  53.1592 156.0328 0001205 100.7573 259.3564 15.30208369 53201
STARLINK-31648          
1 59266U 24050N   25051.56014189 -.00002007  00000+0 -55699-4 0  9994
2 59266  53.1597 155.8867 0001465 108.1145 252.0016 15.30169286 53203
STARLINK-31579          
1 59267U 24050P   25051.76979407  .00059581  00000+0  20083-2 0  9994
2 59267  53.1570 155.0627 0000977  86.3912 273.7201 15.30190160 52072
STARLINK-31627          
1 59268U 24050Q   25051.59600966  .00000612  00000+0  32803-4 0  9993
2 59268  53.1612 156.1112 0001270 103.9000 256.2142 15.30185276 52041
STARLINK-31609          
1 59269U 24050R   25051.58018876 -.00000408  00000+0 -16701-5 0  9991
2 59269  53.1595 156.0127 0001168 101.1032 259.0100 15.30180867 53203
STARLINK-31616          
1 59270U 24050S   25051.65182477 -.00000315  00000+0  14837-5 0  9994
2 59270  53.1601 155.7459 0000962  86.3546 273.7565 15.30189925 52056
STARLINK-31630          
1 59271U 24050T   25051.52907764  .00000310  00000+0  22605-4 0  9990
2 59271  53.1618 143.6101 0001698 121.3846 238.7321 15.30190817 53374
STARLINK-31623          
1 59272U 24050U   25051.54746819  .00003690  00000+0  13675-3 0  9995
2 59272  53.1601 155.8117 0001520 108.9310 251.1856 15.30178584 53201
STARLINK-31595          
1 59273U 24050V   25051.59285103  .00001026  00000+0  46790-4 0  9991
2 59273  53.1620 156.1007 0001335 104.1067 256.0082 15.30176721 53190
STARLINK-31463          
1 59296U 24056A   25051.81656463 -.00002976  00000+0 -64026-4 0  9997
2 59296  42.9974 234.9591 0000355 273.1736  86.9080 15.40695929 52663
STARLINK-31487          
1 59297U 24056B   25051.83435058 -.00001899  00000+0 -38216-4 0  9990
2 59297  42.9997 234.2224 0001778 265.8753  94.1901 15.40688987 52795
STARLINK-31386          
1 59298U 24056C   25051.78521297 -.00001161  00000+0 -20555-4 0  9995
2 59298  43.0004 234.7189 0001445 269.6193  90.4498 15.40682710 52667
STARLINK-31409          
1 59299U 24056D   25051.21965768  .00000776  00000+0  25863-4 0  9995
2 59299  43.0042 238.2120 0002462 271.6402  88.4172 15.40697329 52691
STARLINK-31489          
1 59300U 24056E   25051.21072147 -.00010121  00000+0 -23530-3 0  9993
2 59300  43.0026 238.1454 0000944  72.1796 287.9163 15.40706299 52589
STARLINK-31502          
1 59301U 24056F   25051.82313745 -.00010438  00000+0 -24253-3 0  9997
2 59301  43.0013 234.1299 0001933 227.5902 132.4791 15.40750302 52678
STARLINK-31447          
1 59302U 24056G   25051.19949548  .00001380  00000+0  40317-4 0  9998
2 59302  43.0032 238.0581 0002156 261.1013  98.9600 15.40695363 52582
STARLINK-31504          
1 59303U 24056H   25051.84107276  .00007458  00000+0  18590-3 0  9994
2 59303  43.0021 234.2738 0001763 272.6934  87.3721 15.40654348 52679
STARLINK-31474          
1 59304U 24056J   25051.82762447 -.00000227  00000+0  18274-5 0  9999
2 59304  42.9996 234.1703 0001186 252.9074 107.1652 15.40693534 52679
STARLINK-31500          
1 59305U 24056K   25050.80828522  .00000662  00000+0  23116-4 0  9996
2 59305  43.0023 240.2842 0002442 260.7873  99.2707 15.40696019 52465
STARLINK-31480          
1 59306U 24056L   25051.91934724 -.00000014  00000+0  69093-5 0  9999
2 59306  42.9991 234.0035 0000758 286.2566  73.8207 15.40688179 52688
STARLINK-31282          
1 59307U 24056M   25051.83882510  .00000037  00000+0  81707-5 0  9996
2 59307  43.0036 234.2537 0002015 276.2707  83.7920 15.40697122 52673
STARLINK-31485          
1 59308U 24056N   25051.82987339 -.00001612  00000+0 -31345-4 0  9995
2 59308  43.0024 234.1826 0001410 275.0829  84.9867 15.40686951 52672
STARLINK-31455          
1 59309U 24056P   25051.80536604 -.00002148  00000+0 -44163-4 0  9996
2 59309  43.0018 234.8677 0002078 264.5402  95.5218 15.40698366 52668
STARLINK-31475          
1 59310U 24056Q   25051.80760035 -.00009416  00000+0 -21813-3 0  9996
2 59310  43.0086 234.8806 0003026 269.3384  90.7126 15.40732864 52785
STARLINK-31445          
1 59312U 24056S   25051.91668981 -.01027178  00000+0 -38054-1 0  9996
2 59312  43.0006 233.8596 0001481 288.0898 123.0113 15.29678695  5901
STARLINK-31495          
1 59313U 24056T   25051.82090535 -.00000879  00000+0 -13772-4 0  9992
2 59313  43.0009 234.1171 0001682 265.7846  94.2818 15.40700343 52672
STARLINK-31477          
1 59314U 24056U   25051.79864345 -.00001234  00000+0 -22263-4 0  9998
2 59314  43.0001 234.8161 0002884 267.8927  92.1600 15.40688228 52661
STARLINK-31446          
1 59315U 24056V   25051.92605632  .00001138  00000+0  34513-4 0  9998
2 59315  43.0023 234.0497 0001982 246.8166 113.2481 15.40698170 52681
STARLINK-31479          
1 59316U 24056W   25051.81405040 -.00002029  00000+0 -41320-4 0  9994
2 59316  43.0015 233.1942 0001645 274.1942  85.8727 15.40697543 52680
STARLINK-31349          
1 59317U 24056X   25051.78743263  .00000226  00000+0  12729-4 0  9999
2 59317  42.9995 234.7280 0004994 262.7272  97.3017 15.40683965 52736
STARLINK-31464          
1 59318U 24056Y   25051.92158612  .00000878  00000+0  28300-4 0  9999
2 59318  43.0033 234.0179 0001455 285.1527  74.9169 15.40681065 52685
STARLINK-31402          
1 59320U 24057A   25052.25002315 -.00151338  00000+0 -60524-3 0  9991
2 59320  42.9610 139.4834 0001854 275.0328 209.3958 15.85893262 53193
STARLINK-31578          
1 59321U 24057B   25051.73876508  .00000155  00000+0  10950-4 0  9994
2 59321  42.9989 197.1920 0000123 249.1474 110.9369 15.40693641 52442
STARLINK-31530          
1 59322U 24057C   25051.68961040  .00005148  00000+0  13053-3 0  9998
2 59322  43.0008 197.6914 0001477 285.3863  74.6830 15.40672311 51261
STARLINK-31565          
1 59323U 24057D   25051.72980397  .00001088  00000+0  33316-4 0  9994
2 59323  42.9997 197.1260 0001215 266.9206  93.1511 15.40687233 52455
STARLINK-31570          
1 59324U 24057E   25051.39669602  .00002193  00000+0  59733-4 0  9990
2 59324  42.9955 198.9223 0000969 228.4885 131.5889 15.40702627 51223
STARLINK-31611          
1 59325U 24057F   25051.68065702 -.00000617  00000+0 -75195-5 0  9996
2 59325  42.9994 197.6223 0000913 276.9593  83.1159 15.40690192 51265
STARLINK-31632          
1 59326U 24057G   25051.71412194 -.00001481  00000+0 -28189-4 0  9992
2 59326  43.0006 197.0082 0001805 281.2368  78.8285 15.40694575 51270
STARLINK-31599          
1 59327U 24057H   25051.69858074  .00003080  00000+0  80979-4 0  9991
2 59327  42.9995 197.7576 0001239 272.6677  87.4038 15.40691051 51266
